[{"OBJECT_NAME":"QIANFAN-86","OBJECT_ID":"2025-046P","EPOCH":"2026-03-09T21:02:57.100992","MEAN_MOTION":13.5100289,"ECCENTRICITY":0.00093362,"INCLINATION":88.9754,"RA_OF_ASC_NODE":310.785,"ARG_OF_PERICENTER":237.3248,"MEAN_ANOMALY":122.7003,"EPHEMERIS_TYPE":0,"CLASSIFICATION_TYPE":"U","NORAD_CAT_ID":63172,"ELEMENT_SET_NO":999,"REV_AT_EPOCH":5931,"BSTAR":0.00022624923,"MEAN_MOTION_DOT":1.58e-6,"MEAN_MOTION_DDOT":0},{"OBJECT_NAME":"THOR ABLESTAR R\/B","OBJECT_ID":"1963-038A","EPOCH":"2026-03-09T17:14:11.203872","MEAN_MOTION":13.46126534,"ECCENTRICITY":0.00276731,"INCLINATION":89.9837,"RA_OF_ASC_NODE":334.4336,"ARG_OF_PERICENTER":45.2524,"MEAN_ANOMALY":7.7284,"EPHEMERIS_TYPE":0,"CLASSIFICATION_TYPE":"U","NORAD_CAT_ID":669,"ELEMENT_SET_NO":999,"REV_AT_EPOCH":6632,"BSTAR":8.1643385e-5,"MEAN_MOTION_DOT":5.8e-7,"MEAN_MOTION_DDOT":0}]
